{
"type": "FeatureCollection",
"name": "granica_miasta",
"crs": { "type": "name", "properties": { "name": "urn:ogc:def:crs:OGC:1.3:CRS84" } },
"features": [
{ "type": "Feature", "properties": { "fid": 1.0, "gml_id": "id79b2b187-2d1d-4cae-bf9c-29d6b713e314", "JPT_SJR_KO": "GMI", "JPT_POWIER": 1782, "JPT_KOD_JE": 3028011, "JPT_NAZWA_": "Wągrowiec", "JPT_JOR_ID": 13082, "WERSJA_OD": "2025-01-14T00:00:00", "WAZNY_OD": "2012-09-26T00:00:00", "JPT_ORGAN1": "NZN", "JPT_WAZNA_": "NZN", "IIP_PRZEST": "PL.PZGIK.200", "IIP_IDENTY": "006b96ad-c8d3-4646-a963-bea929c24779", "IIP_WERSJA": "2025-01-14T00:00:00", "JPT_KJ_IIP": "EGIB", "JPT_KJ_I_1": 3028011, "JPT_SPS_KO": "UZG", "JPT_ID": 2645687, "REGON": "57079133600000" }, "geometry": { "type": "MultiLineString", "coordinates": [ [ [ 17.227825933046287, 52.793927506514976 ], [ 17.229026228905877, 52.793499977476962 ], [ 17.229073640320838, 52.793483327574641 ], [ 17.229409990768918, 52.793362617464304 ], [ 17.23011701078244, 52.793108935504705 ], [ 17.230247782443712, 52.793227982955869 ], [ 17.230242239730412, 52.793444915688355 ], [ 17.230237613808733, 52.793646572981388 ], [ 17.230233779995213, 52.793817753804205 ], [ 17.230232373513665, 52.793826816351952 ], [ 17.23021113256894, 52.793969947295508 ], [ 17.230196598225284, 52.794068480124992 ], [ 17.230017034649745, 52.795278946941927 ], [ 17.229972105868992, 52.795424422493348 ], [ 17.229894781886596, 52.795932845695582 ], [ 17.229874494968488, 52.796081656742111 ], [ 17.229735320677595, 52.797009607285268 ], [ 17.229727590410548, 52.797061115142142 ], [ 17.229567692818438, 52.798130135375139 ], [ 17.229621230225764, 52.79816735830574 ], [ 17.229702478820819, 52.798150673433121 ], [ 17.229751947095245, 52.798236940574995 ], [ 17.22964660525265, 52.798265946928304 ], [ 17.229548603978596, 52.79828957664111 ], [ 17.229480804670839, 52.798329485701998 ], [ 17.229361332050011, 52.798742846734683 ], [ 17.229234686555944, 52.799179304033451 ], [ 17.229149703482179, 52.799371847415948 ], [ 17.229061273847563, 52.799579808260361 ], [ 17.229016574977464, 52.799653697884899 ], [ 17.228803825242363, 52.79991205549593 ], [ 17.228530691615891, 52.800067883629687 ], [ 17.228232561835298, 52.800207059474694 ], [ 17.227846771433846, 52.800301486226502 ], [ 17.227773480566508, 52.800392395878177 ], [ 17.228750209314576, 52.800658082454675 ], [ 17.229096664410338, 52.800695451218047 ], [ 17.229511791984546, 52.800700747365411 ], [ 17.231112090183469, 52.80072110966146 ], [ 17.231868076420316, 52.800744519653378 ], [ 17.233935762511802, 52.799945658068772 ], [ 17.233957115778942, 52.799938691118967 ], [ 17.234022634530238, 52.800017280953405 ], [ 17.234188117255638, 52.800269225876086 ], [ 17.234214380533608, 52.80030954824565 ], [ 17.234357922409536, 52.800528069991046 ], [ 17.235879556501537, 52.801857471316367 ], [ 17.235911522295851, 52.801885287069005 ], [ 17.236170376367387, 52.802213893499108 ], [ 17.236204455526195, 52.802255500753851 ], [ 17.236246508838253, 52.80235307662997 ], [ 17.236393452014067, 52.802689641974865 ], [ 17.236778340542767, 52.803571156443518 ], [ 17.236790159776174, 52.803598132928904 ], [ 17.236716820805892, 52.803752901617436 ], [ 17.236744018467832, 52.803858260780224 ], [ 17.236761183589991, 52.803954837013613 ], [ 17.236763276176234, 52.803980140044715 ], [ 17.236650856358082, 52.80506399321623 ], [ 17.23663230986789, 52.805243588963222 ], [ 17.236497633392062, 52.806543496279765 ], [ 17.236477461566931, 52.806737547455683 ], [ 17.236453998500306, 52.806814903142275 ], [ 17.236451481822328, 52.80682574795258 ], [ 17.236232048880805, 52.808110994540399 ], [ 17.236153502688317, 52.808570117610955 ], [ 17.236126509043402, 52.808716311444137 ], [ 17.235862176095335, 52.810211878621644 ], [ 17.235545455624141, 52.811901016845226 ], [ 17.235392617804326, 52.812838031521494 ], [ 17.235255551222288, 52.813678689638003 ], [ 17.235254189910542, 52.813752596447593 ], [ 17.235245253428481, 52.813962193334405 ], [ 17.235240792485943, 52.814017347440227 ], [ 17.235223738606145, 52.814233119083951 ], [ 17.235344867066384, 52.814284295131117 ], [ 17.235345936145428, 52.814320195326701 ], [ 17.235231089435722, 52.814322804249116 ], [ 17.235136400603757, 52.814322475192334 ], [ 17.235150054078783, 52.814384823749648 ], [ 17.23522860217771, 52.814735931310267 ], [ 17.235238241583854, 52.815197803904034 ], [ 17.235251518796122, 52.815247465927534 ], [ 17.23526011913113, 52.815277002762876 ], [ 17.235270496972998, 52.815738976230314 ], [ 17.235055776871402, 52.815740819149845 ], [ 17.235052842086191, 52.815948796457754 ], [ 17.235050607711706, 52.81612116969513 ], [ 17.23504995800495, 52.816170174911619 ], [ 17.235046160633601, 52.816300524990588 ], [ 17.235497435038905, 52.816329630170038 ], [ 17.235574384948819, 52.81633922831768 ], [ 17.235851943500645, 52.816358284357214 ], [ 17.236736341619942, 52.81641756617627 ], [ 17.23692689105053, 52.816429840695513 ], [ 17.236900826283339, 52.816567684339539 ], [ 17.236842247450582, 52.816830325062867 ], [ 17.236782740528902, 52.817097538672492 ], [ 17.236605316373335, 52.817893979320097 ], [ 17.236529815345353, 52.818211498858595 ], [ 17.236499940616195, 52.818337054542852 ], [ 17.236312693823162, 52.819141173080098 ], [ 17.236289877020333, 52.819239043530096 ], [ 17.236185157230345, 52.819695078883235 ], [ 17.236040292172891, 52.820288208622109 ], [ 17.235990506109527, 52.820465450891575 ], [ 17.235928553516477, 52.820686490728946 ], [ 17.235892063270008, 52.820857994858471 ], [ 17.235873158565536, 52.820947199628783 ], [ 17.235835352552691, 52.82112551927316 ], [ 17.235735993646863, 52.821536935920584 ], [ 17.235590192504123, 52.822031931504071 ], [ 17.235513931199208, 52.822290890992313 ], [ 17.235378575268122, 52.822747819024606 ], [ 17.235375304506235, 52.822758922386292 ], [ 17.235369172636386, 52.822778347201542 ], [ 17.235166290533996, 52.823428711313234 ], [ 17.235124325447938, 52.82356299040508 ], [ 17.235119310178632, 52.823587827939754 ], [ 17.235116476153724, 52.823602805013401 ], [ 17.23511174572452, 52.823631603943824 ], [ 17.235040014483577, 52.824075357887644 ], [ 17.235040377217761, 52.824410732567721 ], [ 17.234070472274272, 52.824610799772984 ], [ 17.233722010741534, 52.824350916706045 ], [ 17.233131495015513, 52.824611932640927 ], [ 17.233873102442583, 52.82504036222501 ], [ 17.234204376827478, 52.825233616688763 ], [ 17.23451636363939, 52.825415611144827 ], [ 17.234985056561019, 52.825687622560238 ], [ 17.235030708587662, 52.825715192215995 ], [ 17.235238732039885, 52.825835831434702 ], [ 17.235559466782309, 52.826022000256309 ], [ 17.235825945661986, 52.826176783615352 ], [ 17.236093617179201, 52.826331494151312 ], [ 17.236361398940968, 52.826487194995387 ], [ 17.236124934163609, 52.826584678104489 ], [ 17.234784170680321, 52.82686323838405 ], [ 17.23319765612754, 52.827127153090892 ], [ 17.231800068588214, 52.827359866134906 ], [ 17.231409427133762, 52.827429051347465 ], [ 17.231067832887319, 52.827489703013285 ], [ 17.230725944580001, 52.827550259381518 ], [ 17.230384352125668, 52.827610819181437 ], [ 17.230042013129967, 52.827671456804651 ], [ 17.229943604074183, 52.827688875524927 ], [ 17.22991479202982, 52.827619645157768 ], [ 17.229871874801805, 52.827627099222049 ], [ 17.228783795521579, 52.827806114819957 ], [ 17.22824685427528, 52.827894420805244 ], [ 17.228023079579085, 52.827931191034089 ], [ 17.227695875383034, 52.827973701058909 ], [ 17.226536892554609, 52.828084905120527 ], [ 17.226471321474857, 52.828090760330426 ], [ 17.225883124758898, 52.82814312489753 ], [ 17.225825154515555, 52.828148283957439 ], [ 17.225322312012953, 52.828288619576895 ], [ 17.22473172019426, 52.828574415264775 ], [ 17.22378693255386, 52.828734034076433 ], [ 17.223407668673421, 52.828862181209594 ], [ 17.221532335544854, 52.829500875032799 ], [ 17.221829762980089, 52.830824056604293 ], [ 17.221922884911514, 52.831252645553526 ], [ 17.220023950058714, 52.831455854336788 ], [ 17.218566181293991, 52.831611784291326 ], [ 17.218124256149927, 52.831659021434625 ], [ 17.21776256907097, 52.831697748864549 ], [ 17.217251139755046, 52.831752392940295 ], [ 17.216374291228867, 52.831846151631282 ], [ 17.216018035011928, 52.832241460056316 ], [ 17.215457165481094, 52.832994782340734 ], [ 17.214682603709559, 52.833447021024547 ], [ 17.21445134640744, 52.833581952916703 ], [ 17.214434700462984, 52.834031200541695 ], [ 17.214432050514112, 52.834099421780962 ], [ 17.214380007367492, 52.834749052893464 ], [ 17.214290983545165, 52.835858417741676 ], [ 17.214152544790743, 52.837600095120877 ], [ 17.212038602870866, 52.837472756979913 ], [ 17.211943345977659, 52.837459720257442 ], [ 17.211772476673314, 52.837436280886507 ], [ 17.211671906245993, 52.837422444402691 ], [ 17.209706772046765, 52.836905637138535 ], [ 17.20937429145016, 52.836810775783988 ], [ 17.209194217865083, 52.836769296619202 ], [ 17.20875095756092, 52.836667006061489 ], [ 17.207365995586763, 52.836279518000516 ], [ 17.205570732999821, 52.83577294158961 ], [ 17.20323329469149, 52.832449707758833 ], [ 17.203201291004195, 52.832455158995245 ], [ 17.203044637576152, 52.832444063430785 ], [ 17.202838820538609, 52.832544732827294 ], [ 17.202718844918195, 52.832598406364312 ], [ 17.202454042344723, 52.832689008374558 ], [ 17.202372553477915, 52.832616185249144 ], [ 17.202336602591654, 52.832584163189146 ], [ 17.202524972702562, 52.832438532341868 ], [ 17.202558389939959, 52.832121924951018 ], [ 17.202574169435437, 52.832088617892857 ], [ 17.202630404601024, 52.831989011314498 ], [ 17.202654962061985, 52.831958895000405 ], [ 17.202658371875579, 52.831933854560859 ], [ 17.202797181997152, 52.831859151530885 ], [ 17.202841235766137, 52.831835176239466 ], [ 17.202985729027514, 52.8318134412809 ], [ 17.203104667075003, 52.831802831004978 ], [ 17.203228261136456, 52.831769357481114 ], [ 17.203307178098687, 52.831720997622824 ], [ 17.203377892097997, 52.831698684840219 ], [ 17.203493173727868, 52.83153198027933 ], [ 17.203696703954563, 52.831018739811526 ], [ 17.203759213695712, 52.830770563852887 ], [ 17.204024712946026, 52.830464753244279 ], [ 17.203962076373873, 52.830244541929602 ], [ 17.203850774464275, 52.830077375643583 ], [ 17.203810441609239, 52.829964435426398 ], [ 17.203695155033, 52.82970313584071 ], [ 17.203320395926671, 52.829360653356396 ], [ 17.203285941975281, 52.829317592114926 ], [ 17.203248520171144, 52.829270888498137 ], [ 17.203103219017212, 52.829168500095115 ], [ 17.203048156997443, 52.829009559245335 ], [ 17.203037743286174, 52.828873328693803 ], [ 17.202893304785771, 52.828688931620171 ], [ 17.2027300211831, 52.828590587343953 ], [ 17.202332789312131, 52.828321688479619 ], [ 17.202081873520477, 52.828155733125755 ], [ 17.201753767502257, 52.827967742502217 ], [ 17.20139189342007, 52.827810087167393 ], [ 17.200760101962956, 52.827501023857991 ], [ 17.20054045611651, 52.827379877614931 ], [ 17.20008790051395, 52.827164003725102 ], [ 17.199932916362915, 52.827066320989523 ], [ 17.199795939297452, 52.827025121122489 ], [ 17.199501482285676, 52.826946636831266 ], [ 17.199262398080389, 52.826897141961005 ], [ 17.199026418255752, 52.826819273976426 ], [ 17.198847801107242, 52.826747402486653 ], [ 17.198661561455772, 52.826673166625156 ], [ 17.198410762138256, 52.826576725530785 ], [ 17.198313880703648, 52.826546205436905 ], [ 17.198245918859339, 52.826523678951368 ], [ 17.198121502965215, 52.826408650585918 ], [ 17.197928277062971, 52.826334667219761 ], [ 17.197295220526872, 52.826010636517992 ], [ 17.196844482199502, 52.825776700497826 ], [ 17.196653066593139, 52.825634031468205 ], [ 17.196499854884728, 52.825479531561058 ], [ 17.196358886493531, 52.825319821369597 ], [ 17.196228266448962, 52.825150465273424 ], [ 17.196113230445146, 52.824984853412843 ], [ 17.195930265179747, 52.824738705391447 ], [ 17.195855427959589, 52.824660042881142 ], [ 17.19582902741066, 52.824569795491286 ], [ 17.195711906593612, 52.824175084607987 ], [ 17.195711454148629, 52.824039094545675 ], [ 17.195736104684421, 52.823917156415703 ], [ 17.195717808783655, 52.823878565520488 ], [ 17.195716736864348, 52.823832771813564 ], [ 17.195753003861292, 52.823763712774863 ], [ 17.195857390898734, 52.823620053219912 ], [ 17.195927329697156, 52.82349079925423 ], [ 17.195918510865187, 52.823384720608672 ], [ 17.195830864308693, 52.823256938144766 ], [ 17.195784559610328, 52.823170525164791 ], [ 17.195602997011434, 52.822976740578326 ], [ 17.195461824404337, 52.822818644928979 ], [ 17.195346263391034, 52.822651585247677 ], [ 17.19529462883029, 52.822572016075895 ], [ 17.195250154775295, 52.822484461539013 ], [ 17.195220269665736, 52.822395959692756 ], [ 17.195220210789152, 52.822350810926267 ], [ 17.195220003541014, 52.822305659902945 ], [ 17.195219737412923, 52.822215360111848 ], [ 17.195297354369718, 52.821976051663775 ], [ 17.195383605286548, 52.821890215347189 ], [ 17.19542540851543, 52.82180217415327 ], [ 17.195304447526205, 52.821604274155284 ], [ 17.195210899364401, 52.821529463658209 ], [ 17.19510341177687, 52.821457858639562 ], [ 17.195030844323, 52.821378330685896 ], [ 17.194780873067046, 52.821123157110392 ], [ 17.194666275742261, 52.821036873887543 ], [ 17.194405536909088, 52.820840983384819 ], [ 17.19431820509736, 52.820745221708648 ], [ 17.194235939405488, 52.82069198686446 ], [ 17.194154168012201, 52.820616095602475 ], [ 17.194114058937092, 52.820627446716436 ], [ 17.194052958267434, 52.820332336076113 ], [ 17.193968566782605, 52.820158554384669 ], [ 17.193747815073724, 52.81952132516313 ], [ 17.193626602576948, 52.819261813264639 ], [ 17.193543274286714, 52.819058908117 ], [ 17.193459500476401, 52.818931182670944 ], [ 17.193428176397298, 52.818852461410842 ], [ 17.193432881443908, 52.818842819945701 ], [ 17.193426734183522, 52.818797758323271 ], [ 17.19342203951766, 52.818706941354115 ], [ 17.193492060232174, 52.818239260526113 ], [ 17.193561024551997, 52.817972390822582 ], [ 17.193571039714886, 52.81770228535742 ], [ 17.193737098961762, 52.817317008790873 ], [ 17.193787638735401, 52.817193666286677 ], [ 17.193807365806556, 52.817140364650207 ], [ 17.193918923995341, 52.816973882167808 ], [ 17.193988443241462, 52.816893997773533 ], [ 17.194009388125448, 52.816850697544318 ], [ 17.19404414759736, 52.8168107553238 ], [ 17.194245421083153, 52.816617847658343 ], [ 17.194267317788334, 52.816483546544518 ], [ 17.194249964487721, 52.816483192533759 ], [ 17.193903769192445, 52.816462274878795 ], [ 17.192835723410173, 52.816397628202694 ], [ 17.1925216618787, 52.816378634861486 ], [ 17.191128835149737, 52.816306596932279 ], [ 17.190762043780552, 52.81628841394943 ], [ 17.190673435198857, 52.816284544683668 ], [ 17.190621164835875, 52.8162814093238 ], [ 17.190480730989396, 52.816274411318055 ], [ 17.190103106958109, 52.816256151037592 ], [ 17.189733524026202, 52.816237292736801 ], [ 17.188345178926536, 52.81616834826044 ], [ 17.18694672730507, 52.816092667742666 ], [ 17.186030237880143, 52.816046373814629 ], [ 17.185930842033279, 52.81604134679619 ], [ 17.185610721543949, 52.81602539025824 ], [ 17.185396128845372, 52.816020489973006 ], [ 17.18515891440564, 52.816002742181873 ], [ 17.185094891146946, 52.816139185513869 ], [ 17.185072383953816, 52.816127149558483 ], [ 17.185025778898048, 52.816230313055058 ], [ 17.184942702138276, 52.816414310939827 ], [ 17.184812053553038, 52.816703256113335 ], [ 17.184832083953317, 52.816714174993535 ], [ 17.184697707712175, 52.817017722619191 ], [ 17.18463485251819, 52.817147438354077 ], [ 17.18457136157388, 52.817288836036433 ], [ 17.184562845532895, 52.817307952097174 ], [ 17.184461224885723, 52.817534295695957 ], [ 17.184365813869402, 52.817746973979474 ], [ 17.184283183843885, 52.817930798359505 ], [ 17.184264692392798, 52.817971976002603 ], [ 17.184221981117208, 52.818067104502106 ], [ 17.184173465559862, 52.818187506176436 ], [ 17.18415000898451, 52.818251631491215 ], [ 17.184098975572869, 52.818361202260597 ], [ 17.184008813581269, 52.818554714231723 ], [ 17.183923703336777, 52.818737421167597 ], [ 17.183843154919241, 52.818910394815326 ], [ 17.183762765449863, 52.819083101032135 ], [ 17.183248430856448, 52.819003458592576 ], [ 17.182866847920032, 52.818944373701832 ], [ 17.182810798103471, 52.818935690933849 ], [ 17.182579370784612, 52.818899859594843 ], [ 17.182099409125673, 52.81882550520254 ], [ 17.181813702634145, 52.818781286163343 ], [ 17.181236444808896, 52.819341196650598 ], [ 17.180067170660852, 52.818873408400087 ], [ 17.178660312391081, 52.818326055818531 ], [ 17.178548988934114, 52.818279558817913 ], [ 17.179238448241385, 52.817720753307213 ], [ 17.178996697171709, 52.817651570014903 ], [ 17.178650332415984, 52.817432295745185 ], [ 17.178614531243959, 52.817411600498026 ], [ 17.178336543309165, 52.817250574283683 ], [ 17.178059740482723, 52.817089655533032 ], [ 17.177447652953834, 52.816774922149342 ], [ 17.176737386673206, 52.816550412080815 ], [ 17.176136360359322, 52.816315795155575 ], [ 17.175741118610901, 52.815938552179652 ], [ 17.175676559639438, 52.815838989407943 ], [ 17.175372348380208, 52.815301618924366 ], [ 17.175057146045951, 52.815288947176832 ], [ 17.174756895163153, 52.815273716549981 ], [ 17.17416120280831, 52.815245395552196 ], [ 17.173570053453737, 52.815218490530185 ], [ 17.173191644927019, 52.815201603207797 ], [ 17.172868641995475, 52.815176754064723 ], [ 17.172558868494907, 52.81515147822855 ], [ 17.172159097141478, 52.814968056118957 ], [ 17.171797768505165, 52.81455489777094 ], [ 17.17174134886449, 52.814488015153216 ], [ 17.171556492652414, 52.814277053905641 ], [ 17.171290995365542, 52.814169625514054 ], [ 17.171170142648755, 52.814120726165804 ], [ 17.170828863294027, 52.813880911432783 ], [ 17.170729649328813, 52.813758597311818 ], [ 17.170669521959223, 52.813674029455342 ], [ 17.170515094360169, 52.813579913381282 ], [ 17.170402403028493, 52.813555871588058 ], [ 17.170094795886669, 52.81350759889628 ], [ 17.169956762842467, 52.813486133762773 ], [ 17.169632697514601, 52.813091260699892 ], [ 17.16951874420894, 52.812948932127476 ], [ 17.169404170525983, 52.812609453109566 ], [ 17.169243692075284, 52.812507597370249 ], [ 17.168836655935372, 52.812349593612311 ], [ 17.168486962260438, 52.812271707612581 ], [ 17.16817688740149, 52.812141189812138 ], [ 17.167991083757862, 52.811999279364457 ], [ 17.167900475549441, 52.811796152774264 ], [ 17.167891134526098, 52.811665330793581 ], [ 17.167906349592656, 52.811525894319516 ], [ 17.167957859402037, 52.811384589956027 ], [ 17.168194998824724, 52.810990372042653 ], [ 17.168356214982641, 52.81052024441702 ], [ 17.168357157738122, 52.809890613357567 ], [ 17.168365378988291, 52.80963505071059 ], [ 17.168355893584057, 52.809592364304258 ], [ 17.168340844511405, 52.80952315066844 ], [ 17.168146386227374, 52.809290810448189 ], [ 17.168086102570779, 52.809234928495563 ], [ 17.167395310495593, 52.808759648848799 ], [ 17.167200760627257, 52.808646111780966 ], [ 17.166811316115403, 52.808363810280753 ], [ 17.16653122344551, 52.808103522950191 ], [ 17.166330955800209, 52.807942589412527 ], [ 17.166250425862355, 52.807771904318436 ], [ 17.165838515994508, 52.807385465455098 ], [ 17.165761358470544, 52.807356842019651 ], [ 17.1656730628731, 52.807331913612863 ], [ 17.165448250343999, 52.807246505549585 ], [ 17.165110215733609, 52.806966881802907 ], [ 17.165051236268159, 52.806816764837365 ], [ 17.164853592776918, 52.806519795173372 ], [ 17.164630175788258, 52.806161809173275 ], [ 17.16456497086854, 52.806057373374266 ], [ 17.164413676383088, 52.805970852129249 ], [ 17.164369977085016, 52.805926646724018 ], [ 17.164319894061006, 52.80584726724598 ], [ 17.164294970635972, 52.80580829881837 ], [ 17.164329945728763, 52.805809469499557 ], [ 17.164355214932861, 52.805431586934837 ], [ 17.164304632478807, 52.805279530902936 ], [ 17.16424561064257, 52.805162239686759 ], [ 17.163940355606371, 52.805006872375259 ], [ 17.163694192195599, 52.804727676689836 ], [ 17.163756344521367, 52.8046156781622 ], [ 17.163599487363602, 52.804562706038297 ], [ 17.163511161439491, 52.804496404629326 ], [ 17.163306755988422, 52.804089244986422 ], [ 17.163210794603515, 52.803968233574388 ], [ 17.162823442254698, 52.803775167919774 ], [ 17.162644513823174, 52.803689655396525 ], [ 17.162452031768723, 52.803538458768841 ], [ 17.162284002162199, 52.803388090251225 ], [ 17.162017482415315, 52.803271810704466 ], [ 17.161943866960318, 52.803240361600523 ], [ 17.161836484277075, 52.803238967780345 ], [ 17.161519745650033, 52.803060842016883 ], [ 17.159978748958736, 52.801954204732269 ], [ 17.159971230686384, 52.801945993824596 ], [ 17.159888700944236, 52.801855136842271 ], [ 17.159506700122627, 52.801434243314809 ], [ 17.159257752405768, 52.801158862038839 ], [ 17.158684593366313, 52.800528235067603 ], [ 17.158684349746494, 52.800523464636832 ], [ 17.158658997634642, 52.800357857286343 ], [ 17.158648265450548, 52.800323874486267 ], [ 17.158393796348722, 52.800189966098877 ], [ 17.158444829607319, 52.80007438003593 ], [ 17.158552387901917, 52.799667556573795 ], [ 17.158566388238338, 52.799459120492017 ], [ 17.158553192449958, 52.799283269095262 ], [ 17.158519178469056, 52.799234894767679 ], [ 17.158381773678272, 52.799045243696099 ], [ 17.158316860750528, 52.798952050815103 ], [ 17.158300163960366, 52.798929307420245 ], [ 17.158307255108422, 52.798849283796287 ], [ 17.158323476423469, 52.79863395705344 ], [ 17.158340325567437, 52.79843186076112 ], [ 17.158869204030367, 52.797731906959505 ], [ 17.159145086898715, 52.797716851609806 ], [ 17.159666801927369, 52.796057966622342 ], [ 17.161256603838869, 52.79503890077104 ], [ 17.161428976583505, 52.795113611671617 ], [ 17.164800538287771, 52.79296847930997 ], [ 17.164820814162688, 52.792955572256112 ], [ 17.164945281162453, 52.793114437346134 ], [ 17.169608617876634, 52.791346013824999 ], [ 17.16963409697809, 52.791336334027783 ], [ 17.169764502854431, 52.791286902163115 ], [ 17.170513412609203, 52.791021898404708 ], [ 17.170645535123384, 52.790984543580372 ], [ 17.170897174660521, 52.790913236607679 ], [ 17.171110828147054, 52.790852675524846 ], [ 17.171191303002058, 52.790829903037384 ], [ 17.171397923313808, 52.790770761943079 ], [ 17.171632436263305, 52.790704495697248 ], [ 17.171269761074893, 52.790508599320809 ], [ 17.171056852189921, 52.790364026412604 ], [ 17.170907554159768, 52.790227359039164 ], [ 17.170805697927022, 52.790063182854396 ], [ 17.170785323360388, 52.790011334921694 ], [ 17.170813482773479, 52.789994321389933 ], [ 17.170992161564342, 52.790031791946944 ], [ 17.171054329652172, 52.790038686250803 ], [ 17.171284678424328, 52.790064541688636 ], [ 17.171572614788449, 52.790096860360173 ], [ 17.171742304805623, 52.790104602043904 ], [ 17.172159083314753, 52.790078647237124 ], [ 17.172735275523841, 52.790029514564424 ], [ 17.172916312071848, 52.789985985523906 ], [ 17.173376547791069, 52.789875255851449 ], [ 17.174107002812665, 52.789504269820533 ], [ 17.17445240404194, 52.789464437351377 ], [ 17.175467859168396, 52.789624407932457 ], [ 17.176171188950335, 52.789550232932683 ], [ 17.176904204077701, 52.789433070560314 ], [ 17.176990828381722, 52.789419202469425 ], [ 17.178020405801924, 52.789486373633764 ], [ 17.179141622672816, 52.789657650125243 ], [ 17.179464898842578, 52.789707040387867 ], [ 17.180763635737161, 52.789855123859276 ], [ 17.18084696252485, 52.789845609281357 ], [ 17.181723187124931, 52.789535000996374 ], [ 17.181774385714018, 52.789516809094472 ], [ 17.181857756210949, 52.789499110248215 ], [ 17.181878374455785, 52.789484946448773 ], [ 17.18219642866044, 52.78943190134472 ], [ 17.184042306113025, 52.789294688662181 ], [ 17.184495202355894, 52.789191897997434 ], [ 17.185386274598766, 52.789207959905866 ], [ 17.185727519191435, 52.789160746230039 ], [ 17.186300286683103, 52.789121928081748 ], [ 17.186624298815623, 52.789167982402731 ], [ 17.187456413741121, 52.78927117540394 ], [ 17.187837054811407, 52.789296866589311 ], [ 17.188098165561229, 52.789314435394786 ], [ 17.188942111813205, 52.789315091110637 ], [ 17.189399532150805, 52.789345996539367 ], [ 17.189663978846465, 52.789379711444141 ], [ 17.190356556584412, 52.789524553631963 ], [ 17.190394797924938, 52.789532511772777 ], [ 17.191798283588376, 52.789956468230287 ], [ 17.192800356726099, 52.79014396622464 ], [ 17.19322422551225, 52.78990363692872 ], [ 17.193858113289821, 52.789886398508791 ], [ 17.194499547648839, 52.789866033846749 ], [ 17.195541766897609, 52.789843668344361 ], [ 17.196353114443092, 52.788369717140036 ], [ 17.196339759714267, 52.788061391805797 ], [ 17.19633672779289, 52.787976895376005 ], [ 17.195443133400502, 52.787287522877193 ], [ 17.195156634465615, 52.787066417403715 ], [ 17.194951506585877, 52.786907976016366 ], [ 17.19576868915042, 52.786934077909464 ], [ 17.196354902890491, 52.786952975275987 ], [ 17.197453392214225, 52.786988738471443 ], [ 17.19788181722393, 52.787002892224137 ], [ 17.198688048365668, 52.787024850404478 ], [ 17.199069434400197, 52.787035767363882 ], [ 17.199231780025578, 52.787041559532312 ], [ 17.199737526692083, 52.787054901690503 ], [ 17.199910146346745, 52.787059769607716 ], [ 17.200080242067809, 52.787064688914555 ], [ 17.200409915232509, 52.787074187360126 ], [ 17.20054222953712, 52.78707079831922 ], [ 17.200510800904258, 52.787379433020348 ], [ 17.201204009079703, 52.787422773176232 ], [ 17.201239815702134, 52.787425024909794 ], [ 17.201314538551387, 52.78742966542984 ], [ 17.201035312180871, 52.787944814059337 ], [ 17.201346332058417, 52.788352714988726 ], [ 17.201600924399369, 52.788686551414173 ], [ 17.201796092231632, 52.789533292962126 ], [ 17.202022758062213, 52.790515775683254 ], [ 17.202790636542318, 52.791117033716738 ], [ 17.203048644338356, 52.79131826238801 ], [ 17.203385415392692, 52.791329118966303 ], [ 17.205157823606438, 52.79120008806867 ], [ 17.205593379013457, 52.791337624199997 ], [ 17.206558053902494, 52.791642975640123 ], [ 17.208518281736524, 52.791579059542983 ], [ 17.209280025858583, 52.791609896489369 ], [ 17.209547816231105, 52.791620683586785 ], [ 17.209768505709818, 52.791629590143124 ], [ 17.209988750486172, 52.791638489578219 ], [ 17.210218028606974, 52.79164779469572 ], [ 17.210390879640808, 52.791654719253017 ], [ 17.210485078156772, 52.791658568497063 ], [ 17.210654850438839, 52.79165375451975 ], [ 17.211146341802088, 52.791639851770739 ], [ 17.211385961173086, 52.791628535298202 ], [ 17.211930767337119, 52.791624156918026 ], [ 17.212242014063104, 52.79162803826177 ], [ 17.212370836460128, 52.791630519109773 ], [ 17.21283311361945, 52.791641621098208 ], [ 17.213480695902646, 52.791768471803671 ], [ 17.215565460468181, 52.792068937148315 ], [ 17.215609221654688, 52.792079938030561 ], [ 17.215658494258268, 52.79210127451271 ], [ 17.216291814692934, 52.792493656525721 ], [ 17.21634067403728, 52.792506982188947 ], [ 17.218563703027403, 52.792819905731356 ], [ 17.218626020440638, 52.792827047069629 ], [ 17.21898306235115, 52.792541824202182 ], [ 17.219158040978289, 52.792402351928828 ], [ 17.219709530979358, 52.791962027921961 ], [ 17.219743566217925, 52.791935108160366 ], [ 17.219818865795471, 52.791874991623231 ], [ 17.220890296886349, 52.790494087032741 ], [ 17.221438335709102, 52.790580998680099 ], [ 17.222986035647214, 52.79141676430136 ], [ 17.224286662655352, 52.792120472618379 ], [ 17.225222102886693, 52.792630017971739 ], [ 17.225395400390504, 52.792724524970104 ], [ 17.22550316218852, 52.792686834839017 ], [ 17.225941385181606, 52.792932078929255 ], [ 17.227825933046287, 52.793927506514976 ] ] ] } }
]
}
